HYLAS 1                 
1 37237U 10065A   20145.83097594 -.00000035  00000-0  00000+0 0  9999
2 37237   0.0771  91.7410 0010923 149.4396 122.0464  0.99702493 34809
INTELSAT 17 (IS-17)     
1 37238U 10065B   20146.16855013  .00000008  00000-0  00000-0 0  9995
2 37238   0.0054 299.5969 0002378 127.1687 303.1231  1.00273199 31239
BEIDOU 7                
1 37256U 10068A   20146.27974337 -.00000219  00000-0  10000-3 0  9990
2 37256  51.5205 298.6061 0075085 209.3970 315.3103  1.00265421 34600
EUTELSAT KA-SAT 9A      
1 37258U 10069A   20145.36592118  .00000073  00000-0  00000-0 0  9998
2 37258   0.0239 333.5148 0006333 145.6281 263.9959  1.00271914 21809
HISPASAT 30W-5          
1 37264U 10070A   20145.78884096 -.00000205  00000-0  00000-0 0  9990
2 37264   0.0675 116.0362 0004892 333.5694  47.2572  1.00272260 30984
KOREASAT 6              
1 37265U 10070B   20146.14563095 -.00000352  00000-0  00000-0 0  9998
2 37265   0.0139  11.2896 0001298  36.2377   4.1014  1.00272234 34562
BEIDOU 8                
1 37384U 11013A   20146.25849366 -.00000205  00000-0  10000-3 0  9999
2 37384  59.2401  61.8342 0045891 206.5809 187.4067  1.00264973 33482
INTELSAT NEW DAWN       
1 37392U 11016A   20145.96229779  .00000166  00000-0  00000-0 0  9999
2 37392   0.0028 118.6607 0001081 282.3741 221.2147  1.00261874 31105
YAHSAT 1A               
1 37393U 11016B   20144.65671133  .00000112  00000-0  00000-0 0  9991
2 37393   0.0143 309.9407 0002600 118.1311 102.5691  1.00274533 33343
SBIRS GEO-1 (USA 230)   
1 37481U 11019A   20145.87974253  .00000001  00000-0  00000-0 0  9993
2 37481   2.0852 342.5107 0002169  85.0905 198.2331  1.00272387 33226
TELSTAR 14R             
1 37602U 11021A   20145.49512775 -.00000269  00000-0  00000-0 0  9993
2 37602   0.0427  64.7960 0002150   1.2396 291.7710  1.00271322 33612
GSAT-8                  
1 37605U 11022A   20145.20535594  .00000096  00000-0  00000+0 0  9996
2 37605   0.0597 120.7608 0003414 187.0287  63.4561  1.00272872 33036
ST-2                    
1 37606U 11022B   20145.66880429 -.00000201  00000-0  00000-0 0  9997
2 37606   0.0162 324.4841 0000929 136.2723 110.7290  1.00271236 33045
CHINASAT 10 (ZX 10)     
1 37677U 11026A   20145.71892997 -.00000341  00000-0  00000+0 0  9992
2 37677   0.0744 269.2282 0002679 231.4249 111.4242  1.00268436 32759
TIANLIAN 1-02           
1 37737U 11032A   20146.31063468 -.00000007  00000-0  00000-0 0  9996
2 37737   2.8725  74.2942 0011226  91.1748   0.6862  1.00273515 32521
GSAT-12                 
1 37746U 11034A   20145.85115598 -.00000155  00000-0  00000-0 0  9992
2 37746   0.0191 262.4257 0010465 189.1105 180.7913  1.00270660 21294
SES-3                   
1 37748U 11035A   20145.84606774 -.00000091  00000-0  00000-0 0  9994
2 37748   0.0174 324.7884 0002373  89.7964  29.9041  1.00272643 32417
KAZSAT-2                
1 37749U 11035B   20145.38136193 -.00000187  00000-0  00000+0 0  9992
2 37749   0.0347 248.7857 0000603 292.7631 284.7110  1.00271359 32361
BEIDOU 9                
1 37763U 11038A   20145.79155661  .00000003  00000-0  10000-3 0  9998
2 37763  54.4252 185.6216 0072508 226.9778 208.1863  1.00255470 32447
ASTRA 1N                
1 37775U 11041A   20146.07063174  .00000130  00000-0  00000+0 0  9990
2 37775   0.0425  20.4155 0005496  25.6992 241.6264  1.00271059 32191
BSAT-3C (JCSAT-110R)    
1 37776U 11041B   20145.89022196 -.00000340  00000-0  00000+0 0  9993
2 37776   0.0592 107.1135 0000198 245.1357 321.1306  1.00273821 32310
PAKSAT-1R               
1 37779U 11042A   20145.93198819  .00000164  00000-0  00000-0 0  9992
2 37779   0.0040 307.8823 0004118  93.8642 214.7594  1.00274929 32074
CHINASAT 1A (ZX 1A)     
1 37804U 11047A   20145.71227223 -.00000327  00000-0  00000-0 0  9996
2 37804   0.0502  94.0847 0002138 304.8045 230.1535  1.00273889 31877
COSMOS 2473             
1 37806U 11048A   20144.11716080 -.00000096  00000-0  00000+0 0  9998
2 37806   0.0667 110.4508 0004852 334.6736 184.7262  1.00271101 31844
SES-2                   
1 37809U 11049A   20146.24299642 -.00000186  00000-0  00000-0 0  9999
2 37809   0.0118   7.7409 0002310  49.0472 186.9964  1.00271500 31810
ARABSAT-5C              
1 37810U 11049B   20145.87058275  .00000134  00000-0  00000-0 0  9996
2 37810   0.0632  11.5373 0003448  86.1449 118.6562  1.00270438 31708
EUTELSAT 7 WEST A       
1 37816U 11051A   20146.15228860 -.00000050  00000-0  00000-0 0  9994
2 37816   0.0629   0.2509 0007043 150.3017 140.1691  1.00271895 31695
QUETZSAT 1              
1 37826U 11054A   20146.19026463 -.00000232  00000-0  00000-0 0  9999
2 37826   0.0174   4.7009 0002831  70.0531 159.9864  1.00271790 27693
INTELSAT 18 (IS-18)     
1 37834U 11056A   20145.75891903  .00000063  00000-0  00000-0 0  9991
2 37834   0.0153 354.0363 0002462  76.9127 265.0709  1.00272447 31725
EUTELSAT 16A            
1 37836U 11057A   20146.07063174  .00000114  00000-0  00000-0 0  9998
2 37836   0.0680  10.8297 0005347  63.7528 209.9527  1.00270494 23781
VIASAT-1                
1 37843U 11059A   20145.78599029 -.00000013  00000-0  00000-0 0  9997
2 37843   0.0172 308.4537 0002314 105.7240 356.5242  1.00271804 32078
ASIASAT 7               
1 37933U 11069A   20145.88759378 -.00000324  00000-0  00000-0 0  9999
2 37933   0.0152 292.8768 0001641 100.6629 274.4381  1.00273765 22658
BEIDOU 10               
1 37948U 11073A   20146.26899596 -.00000152  00000-0  10000-3 0  9993
2 37948  51.6127 298.1923 0064722 210.9438 285.2713  1.00261272 31202
LUCH 5A                 
1 37951U 11074B   20146.30761545 -.00000035  00000-0  00000-0 0  9991
2 37951   3.2113 115.6045 0004933 322.5798  82.9355  1.00275142 30999
NIGCOMSAT 1R            
1 38014U 11077A   20145.15716559  .00000156  00000-0  00000-0 0  9995
2 38014   0.0045 244.7661 0001465 181.0240 275.5040  1.00271592 30811
FENGYUN 2F              
1 38049U 12002A   20146.15759793 -.00000348  00000-0  00000-0 0  9994
2 38049   2.0124  83.4546 0003211  58.1117 270.5973  1.00265044 30687
WGS F4 (USA 233)        
1 38070U 12003A   20145.94702023 -.00000205  00000-0  00000-0 0  9991
2 38070   0.0172 338.2657 0000322 250.3756  83.6981  1.00269874 30510
SES-4                   
1 38087U 12007A   20146.22111774 -.00000158  00000-0  00000+0 0  9998
2 38087   0.0193 321.3526 0002767 112.5783 226.9228  1.00271528 30282
BEIDOU 11               
1 38091U 12008A   20146.55305458  .00000065  00000-0  00000+0 0  9990
2 38091   1.4380  65.9498 0005327 288.6902 146.8312  1.00276458 30283
MUOS-1                  
1 38093U 12009A   20145.31568034 -.00000116  00000-0  00000-0 0  9996
2 38093   2.5353   6.8060 0056760   3.7033 245.5137  1.00271204 30246
INTELSAT 22 (IS-22)     
1 38098U 12011A   20146.02448799 -.00000049  00000-0  00000-0 0  9993
2 38098   0.0192 310.1920 0002959 137.6915 236.0958  1.00275148 29849
APSTAR 7                
1 38107U 12013A   20145.88183619 -.00000092  00000-0  00000-0 0  9994
2 38107   0.0212  26.2005 0002536  48.7039 202.0017  1.00272830 29969
YAHSAT 1B               
1 38245U 12016A   20143.96646583  .00000138  00000-0  00000+0 0  9990
2 38245   0.0181 312.4191 0002796 118.0136 206.1342  1.00269291 29693
AEHF-2 (USA 235)        
1 38254U 12019A   20145.19767172 -.00000264  00000-0  00000-0 0  9990
2 38254   1.9774  45.9103 0006908  30.9087 169.0763  1.00271743 28641
JCSAT-13                
1 38331U 12023A   20146.39377891 -.00000347  00000-0  00000+0 0  9990
2 38331   0.0181 289.5304 0002264 139.0110  80.6548  1.00273091 29375
VINASAT-2               
1 38332U 12023B   20146.45951853 -.00000319  00000-0  00000+0 0  9993
2 38332   0.0101 323.6588 0002030 114.8912 102.2343  1.00271869 29414
NIMIQ 6                 
1 38342U 12026A   20146.24092553 -.00000163  00000-0  00000-0 0  9995
2 38342   0.0584 102.9101 0002706 320.6748 175.3210  1.00271326 28223
CHINASAT 2A (ZX 2A)     
1 38352U 12028A   20145.72602330 -.00000282  00000-0  00000-0 0  9992
2 38352   0.0179 322.0444 0001609  85.5885 194.7454  1.00267961 29438
INTELSAT 19 (IS-19)     
1 38356U 12030A   20145.38858740 -.00000045  00000-0  00000+0 0  9995
2 38356   0.0150 331.3932 0002826  93.5275 123.4229  1.00271790 29300
ECHOSTAR 17             
1 38551U 12035A   20145.84519538 -.00000064  00000-0  00000-0 0  9999
2 38551   0.0173 324.4470 0002055  98.8840  16.7279  1.00270374 28868
METEOSAT-10 (MSG-3)     
1 38552U 12035B   20146.07063174  .00000073  00000-0  00000+0 0  9994
2 38552   0.9970  11.9289 0000514  41.4276 224.5692  1.00278500 29019
SES-5                   
1 38652U 12036A   20145.23938484  .00000045  00000-0  00000-0 0  9998
2 38652   0.0672 104.9218 0001666 314.0791 274.4551  1.00272130 22288
TIANLIAN 1-03           
1 38730U 12040A   20146.26785385  .00000135  00000-0  00000-0 0  9994
2 38730   0.1715 112.6050 0005996 286.7883 320.7111  1.00273069 28792
INTELSAT 20 (IS-20)     
1 38740U 12043A   20145.87991701 -.00000014  00000-0  00000-0 0  9992
2 38740   0.0039 339.3175 0001657 214.8200  74.0525  1.00270534 28626
HYLAS 2                 
1 38741U 12043B   20145.96229779  .00000164  00000-0  00000-0 0  9997
2 38741   0.0166 354.6407 0001821  64.8449 200.9760  1.00273183 28564
INTELSAT 21 (IS-21)     
1 38749U 12045A   20145.71146269 -.00000274  00000-0  00000-0 0  9995
2 38749   0.0129  13.7732 0001911  46.2579  20.8743  1.00271917 28331
ASTRA 2F                
1 38778U 12051A   20145.91299524  .00000160  00000-0  00000-0 0  9992
2 38778   0.0646 236.1360 0000642 349.7343  14.0023  1.00269792 28081
GSAT-10                 
1 38779U 12051B   20146.06021469 -.00000155  00000-0  00000-0 0  9996
2 38779   0.0492 272.8394 0002566 104.1716 330.7822  1.00273064 27912
INTELSAT 23 (IS-23)     
1 38867U 12057A   20145.20561884 -.00000273  00000-0  00000-0 0  9996
2 38867   0.0175 307.4707 0001428 103.1464 212.6929  1.00273542 27799
